GLOBALSTAR M024         
1 25883U 99043A   24160.73810924 -.00000129  00000+0 -22679-2 0  9999
2 25883  51.9977 143.2460 0001449 227.8463 304.0803 11.10156793 73389
GLOBALSTAR M027         
1 25884U 99043B   24160.86029818 -.00000054  00000+0  36666-3 0  9996
2 25884  52.0185 210.3785 0021272 109.5722 250.7370 11.04368771 99994
GLOBALSTAR M054         
1 25885U 99043C   24160.94425829 -.00000064  00000+0  18879-3 0  9995
2 25885  52.0166  40.1242 0004200 264.5108 107.9913 11.39203338 76517
GLOBALSTAR M053         
1 25886U 99043D   24160.91652806 -.00000055  00000+0  39428-3 0  9993
2 25886  52.0006 326.5785 0003949 158.2998  11.7816 11.27655699 77332
GLOBALSTAR M058         
1 25907U 99049A   24161.10865005  .00000008  00000+0  12410-2 0  9990
2 25907  51.9967  25.3755 0001681 291.3435  68.7221 11.93182346108218
GLOBALSTAR M050         
1 25908U 99049B   24160.95759689  .00000007  00000+0  10785-2 0  9995
2 25908  52.0005  61.3375 0009612  11.0866  72.5443 12.07434821103105
GLOBALSTAR M033         
1 25909U 99049C   24161.16856148 -.00000092  00000+0 -47035-6 0  9996
2 25909  51.9929 318.3599 0011924 216.8054 143.1975 12.20273515122927
GLOBALSTAR M055         
1 25910U 99049D   24160.84016304 -.00000070  00000+0  21053-3 0  9998
2 25910  52.0039 348.1995 0007884  78.3768 281.7968 12.29402557122365
